LIZZIESAT-1 (LS-1)      
1 59132U 24043AL  26068.89230471  .00005784  00000+0  22329-3 0  9993
2 59132  97.5461 203.4772 0009923 229.9925 130.0443 15.26635711111780
STARLINK-35782          
1 67182U 25303V   26068.06437699  .00024154  00000+0  88480-3 0  9999
2 67182  43.0030 313.8882 0001793 254.3565 105.7089 15.27563799 12646
